[{"OBJECT_NAME":"STARLINK-30137","OBJECT_ID":"2023-079W","EPOCH":"2026-03-09T22:00:01.999584","MEAN_MOTION":15.20302785,"ECCENTRICITY":0.00014451,"INCLINATION":43.0008,"RA_OF_ASC_NODE":105.2617,"ARG_OF_PERICENTER":248.8465,"MEAN_ANOMALY":256.5906,"EPHEMERIS_TYPE":0,"CLASSIFICATION_TYPE":"U","NORAD_CAT_ID":56843,"ELEMENT_SET_NO":999,"REV_AT_EPOCH":578,"BSTAR":0.056859183,"MEAN_MOTION_DOT":0.0136961,"MEAN_MOTION_DDOT":0},{"OBJECT_NAME":"CONTECSAT-1","OBJECT_ID":"2024-043V","EPOCH":"2026-03-09T22:02:35.535840","MEAN_MOTION":15.34615346,"ECCENTRICITY":0.00100896,"INCLINATION":97.5476,"RA_OF_ASC_NODE":207.3735,"ARG_OF_PERICENTER":223.9905,"MEAN_ANOMALY":136.0535,"EPHEMERIS_TYPE":0,"CLASSIFICATION_TYPE":"U","NORAD_CAT_ID":59117,"ELEMENT_SET_NO":999,"REV_AT_EPOCH":11201,"BSTAR":0.0004369392,"MEAN_MOTION_DOT":0.00014607,"MEAN_MOTION_DDOT":0}]
